{"type": "FeatureCollection", "features": [ {"type": "Feature", "properties": {"norad_id": 37216, "name": "COSMO-SKYMED 4", "group": "resource", "lat": 30.605428854836426, "lon": 160.08100600262716, "alt_km": 620.2443173049369, "timestamp": "2025-12-09T09:46:47.303815+00:00", "meta": {"OBJECT_NAME": "COSMO-SKYMED 4", "OBJECT_ID": "2010-060A", "EPOCH": "2025-12-09T04:46:47.955360", "MEAN_MOTION": 14.82161696, "ECCENTRICITY": 0.0001386, "INCLINATION": 97.8802, "RA_OF_ASC_NODE": 164.5753, "ARG_OF_PERICENTER": 78.4136, "MEAN_ANOMALY": 281.7233, "EPHEMERIS_TYPE": 0, "CLASSIFICATION_TYPE": "U", "NORAD_CAT_ID": 37216, "ELEMENT_SET_NO": 999, "REV_AT_EPOCH": 81642, "BSTAR": 0.00013496, "MEAN_MOTION_DOT": 1.023e-05, "MEAN_MOTION_DDOT": 0}, "tle": {"line1": "1 37216U 10060A   25343.19916615  .00001023  00000+0  13496-3 0  9992", "line2": "2 37216  97.8802 164.5753 0001386  78.4136 281.7233 14.82161696816424"}}, "geometry": {"type": "Point", "coordinates": [160.08100600262716, 30.605428854836426]}}, {"type": "Feature", "properties": {"norad_id": 37387, "name": "RESOURCESAT-2", "group": "resource", "lat": 1.1398040651074974, "lon": 46.79786322709237, "alt_km": 819.6702958358956, "timestamp": "2025-12-09T09:46:47.303825+00:00", "meta": {"OBJECT_NAME": "RESOURCESAT-2", "OBJECT_ID": "2011-015A", "EPOCH": "2025-12-09T04:42:24.539040", "MEAN_MOTION": 14.21594911, "ECCENTRICITY": 0.0006589, "INCLINATION": 98.7881, "RA_OF_ASC_NODE": 46.7638, "ARG_OF_PERICENTER": 51.7801, "MEAN_ANOMALY": 308.3969, "EPHEMERIS_TYPE": 0, "CLASSIFICATION_TYPE": "U", "NORAD_CAT_ID": 37387, "ELEMENT_SET_NO": 999, "REV_AT_EPOCH": 75918, "BSTAR": 0.00012605, "MEAN_MOTION_DOT": 2.32e-06, "MEAN_MOTION_DDOT": 0}, "tle": {"line1": "1 37387U 11015A   25343.19611735  .00000232  00000+0  12605-3 0  9999", "line2": "2 37387  98.7881  46.7638 0006589  51.7801 308.3969 14.21594911759180"}}, "geometry": {"type": "Point", "coordinates": [46.79786322709237, 1.1398040651074974]}}, {"type": "Feature", "properties": {"norad_id": 37781, "name": "HAIYANG-2A", "group": "resource", "lat": -21.177381037322522, "lon": 160.73829482409664, "alt_km": 973.679072362419, "timestamp": "2025-12-09T09:46:47.303836+00:00", "meta": {"OBJECT_NAME": "HAIYANG-2A", "OBJECT_ID": "2011-043A", "EPOCH": "2025-12-09T03:34:54.633216", "MEAN_MOTION": 13.78834016, "ECCENTRICITY": 0.0001672, "INCLINATION": 99.3373, "RA_OF_ASC_NODE": 344.1386, "ARG_OF_PERICENTER": 87.8376, "MEAN_ANOMALY": 272.2967, "EPHEMERIS_TYPE": 0, "CLASSIFICATION_TYPE": "U", "NORAD_CAT_ID": 37781, "ELEMENT_SET_NO": 999, "REV_AT_EPOCH": 72049, "BSTAR": -0.00013558, "MEAN_MOTION_DOT": -1.82e-06, "MEAN_MOTION_DDOT": 0}, "tle": {"line1": "1 37781U 11043A   25343.14924344 -.00000182  00000+0 -13558-3 0  9990", "line2": "2 37781  99.3373 344.1386 0001672  87.8376 272.2967 13.78834016720494"}}, "geometry": {"type": "Point", "coordinates": [160.73829482409664, -21.177381037322522]}}, {"type": "Feature", "properties": {"norad_id": 37791, "name": "RASAT", "group": "resource", "lat": -28.762563452515142, "lon": 77.17889723688825, "alt_km": 677.3340576278006, "timestamp": "2025-12-09T09:46:47.303847+00:00", "meta": {"OBJECT_NAME": "RASAT", "OBJECT_ID": "2011-044D", "EPOCH": "2025-12-09T05:14:39.829920", "MEAN_MOTION": 14.67900847, "ECCENTRICITY": 0.0021939, "INCLINATION": 98.0655, "RA_OF_ASC_NODE": 72.5286, "ARG_OF_PERICENTER": 75.5197, "MEAN_ANOMALY": 337.7265, "EPHEMERIS_TYPE": 0, "CLASSIFICATION_TYPE": "U", "NORAD_CAT_ID": 37791, "ELEMENT_SET_NO": 999, "REV_AT_EPOCH": 76531, "BSTAR": 0.00012436, "MEAN_MOTION_DOT": 6.65e-06, "MEAN_MOTION_DDOT": 0}, "tle": {"line1": "1 37791U 11044D   25343.21851655  .00000665  00000+0  12436-3 0  9992", "line2": "2 37791  98.0655  72.5286 0021939  75.5197 337.7265 14.67900847765311"}}, "geometry": {"type": "Point", "coordinates": [77.17889723688825, -28.762563452515142]}}, {"type": "Feature", "properties": {"norad_id": 37841, "name": "SRMSAT", "group": "resource", "lat": 8.382377909063521, "lon": 152.06101246877333, "alt_km": 853.4631364880097, "timestamp": "2025-12-09T09:46:47.303858+00:00", "meta": {"OBJECT_NAME": "SRMSAT", "OBJECT_ID": "2011-058D", "EPOCH": "2025-12-08T18:35:17.755584", "MEAN_MOTION": 14.11509665, "ECCENTRICITY": 0.00117062, "INCLINATION": 19.9702, "RA_OF_ASC_NODE": 131.9502, "ARG_OF_PERICENTER": 269.448, "MEAN_ANOMALY": 132.3331, "EPHEMERIS_TYPE": 0, "CLASSIFICATION_TYPE": "U", "NORAD_CAT_ID": 37841, "ELEMENT_SET_NO": 999, "REV_AT_EPOCH": 73088, "BSTAR": 0.00016661288, "MEAN_MOTION_DOT": 5.72e-06, "MEAN_MOTION_DDOT": 0}, "tle": {"line1": "1 37841U 11058D   25342.77451106  .00000572  00000+0  16661-3 0  9991", "line2": "2 37841  19.9702 131.9502 0011706 269.4480 132.3331 14.11509665730882"}}, "geometry": {"type": "Point", "coordinates": [152.06101246877333, 8.382377909063521]}}, {"type": "Feature", "properties": {"norad_id": 38012, "name": "PLEIADES 1A", "group": "resource", "lat": -57.48861846041972, "lon": -136.82007840582148, "alt_km": 705.8315269442446, "timestamp": "2025-12-09T09:46:47.303868+00:00", "meta": {"OBJECT_NAME": "PLEIADES 1A", "OBJECT_ID": "2011-076F", "EPOCH": "2025-12-09T05:41:54.998304", "MEAN_MOTION": 14.58555618, "ECCENTRICITY": 0.0001327, "INCLINATION": 98.1826, "RA_OF_ASC_NODE": 56.06, "ARG_OF_PERICENTER": 74.454, "MEAN_ANOMALY": 351.5316, "EPHEMERIS_TYPE": 0, "CLASSIFICATION_TYPE": "U", "NORAD_CAT_ID": 38012, "ELEMENT_SET_NO": 999, "REV_AT_EPOCH": 74430, "BSTAR": 0.0001075, "MEAN_MOTION_DOT": 4.54e-06, "MEAN_MOTION_DDOT": 0}, "tle": {"line1": "1 38012U 11076F   25343.23744211  .00000454  00000+0  10750-3 0  9998", "line2": "2 38012  98.1826  56.0600 0001327  74.4540 351.5316 14.58555618744304"}}, "geometry": {"type": "Point", "coordinates": [-136.82007840582148, -57.48861846041972]}}, {"type": "Feature", "properties": {"norad_id": 38038, "name": "ZIYUAN 1-02C (ZY 1-02C)", "group": "resource", "lat": 31.700887859883856, "lon": 44.2249711287795, "alt_km": 765.3929487951809, "timestamp": "2025-12-09T09:46:47.303879+00:00", "meta": {"OBJECT_NAME": "ZIYUAN 1-02C (ZY 1-02C)", "OBJECT_ID": "2011-079A", "EPOCH": "2025-12-09T05:03:18.921888", "MEAN_MOTION": 14.38005577, "ECCENTRICITY": 0.0007007, "INCLINATION": 98.4335, "RA_OF_ASC_NODE": 49.2893, "ARG_OF_PERICENTER": 148.0042, "MEAN_ANOMALY": 305.7516, "EPHEMERIS_TYPE": 0, "CLASSIFICATION_TYPE": "U", "NORAD_CAT_ID": 38038, "ELEMENT_SET_NO": 999, "REV_AT_EPOCH": 73190, "BSTAR": 0.0002043, "MEAN_MOTION_DOT": 5.75e-06, "MEAN_MOTION_DDOT": 0}, "tle": {"line1": "1 38038U 11079A   25343.21063567  .00000575  00000+0  20430-3 0  9995", "line2": "2 38038  98.4335  49.2893 0007007 148.0042 305.7516 14.38005577731901"}}, "geometry": {"type": "Point", "coordinates": [44.2249711287795, 31.700887859883856]}}, {"type": "Feature", "properties": {"norad_id": 38046, "name": "ZIYUAN 3-1 (ZY 3-1)", "group": "resource", "lat": 66.94861835868562, "lon": 32.52708580146914, "alt_km": 357.7928813248718, "timestamp": "2025-12-09T09:46:47.303890+00:00", "meta": {"OBJECT_NAME": "ZIYUAN 3-1 (ZY 3-1)", "OBJECT_ID": "2012-001A", "EPOCH": "2025-12-08T22:46:06.225888", "MEAN_MOTION": 15.67829744, "ECCENTRICITY": 0.00019346, "INCLINATION": 97.1753, "RA_OF_ASC_NODE": 49.279, "ARG_OF_PERICENTER": 8.6778, "MEAN_ANOMALY": 351.4516, "EPHEMERIS_TYPE": 0, "CLASSIFICATION_TYPE": "U", "NORAD_CAT_ID": 38046, "ELEMENT_SET_NO": 999, "REV_AT_EPOCH": 77437, "BSTAR": 0.00074480272, "MEAN_MOTION_DOT": 0.00082329, "MEAN_MOTION_DDOT": 0}, "tle": {"line1": "1 38046U 12001A   25342.94868317  .00082329  00000+0  74480-3 0  9996", "line2": "2 38046  97.1753  49.2790 0001934   8.6778 351.4516 15.67829744774375"}}, "geometry": {"type": "Point", "coordinates": [32.52708580146914, 66.94861835868562]}}, {"type": "Feature", "properties": {"norad_id": 38338, "name": "ARIRANG-3 (KOMPSAT-3)", "group": "resource", "lat": 78.42297394131866, "lon": 163.6456787655183, "alt_km": 681.5803242558613, "timestamp": "2025-12-09T09:46:47.303901+00:00", "meta": {"OBJECT_NAME": "ARIRANG-3 (KOMPSAT-3)", "OBJECT_ID": "2012-025B", "EPOCH": "2025-12-09T04:24:16.096896", "MEAN_MOTION": 14.61704773, "ECCENTRICITY": 0.0005609, "INCLINATION": 98.3317, "RA_OF_ASC_NODE": 297.7462, "ARG_OF_PERICENTER": 350.4949, "MEAN_ANOMALY": 9.6145, "EPHEMERIS_TYPE": 0, "CLASSIFICATION_TYPE": "U", "NORAD_CAT_ID": 38338, "ELEMENT_SET_NO": 999, "REV_AT_EPOCH": 72358, "BSTAR": 0.00020012, "MEAN_MOTION_DOT": 9.48e-06, "MEAN_MOTION_DDOT": 0}, "tle": {"line1": "1 38338U 12025B   25343.18351964  .00000948  00000+0  20012-3 0  9997", "line2": "2 38338  98.3317 297.7462 0005609 350.4949   9.6145 14.61704773723589"}}, "geometry": {"type": "Point", "coordinates": [163.6456787655183, 78.42297394131866]}}, {"type": "Feature", "properties": {"norad_id": 38709, "name": "EXACTVIEW-1 (ADS-1B)", "group": "resource", "lat": 3.3323585645756175, "lon": -87.74582245345108, "alt_km": 819.0192967125831, "timestamp": "2025-12-09T09:46:47.303912+00:00", "meta": {"OBJECT_NAME": "EXACTVIEW-1 (ADS-1B)", "OBJECT_ID": "2012-039C", "EPOCH": "2025-12-09T03:53:54.161088", "MEAN_MOTION": 14.24905575, "ECCENTRICITY": 0.001086, "INCLINATION": 98.9635, "RA_OF_ASC_NODE": 91.4775, "ARG_OF_PERICENTER": 4.5836, "MEAN_ANOMALY": 355.544, "EPHEMERIS_TYPE": 0, "CLASSIFICATION_TYPE": "U", "NORAD_CAT_ID": 38709, "ELEMENT_SET_NO": 999, "REV_AT_EPOCH": 69564, "BSTAR": 0.00013629, "MEAN_MOTION_DOT": 2.72e-06, "MEAN_MOTION_DDOT": 0}, "tle": {"line1": "1 38709U 12039C   25343.16243242  .00000272  00000+0  13629-3 0  9997", "line2": "2 38709  98.9635  91.4775 0010860   4.5836 355.5440 14.24905575695641"}}, "geometry": {"type": "Point", "coordinates": [-87.74582245345108, 3.3323585645756175]}}]}